41186,ORBCOMM FM115,2015,98.58,172.0,+,47.0,Active,1,LEO,USA,ORBCOMM,Commercial,Communications,Falcon,1 41186U 15081H   24134.37234032  .00003136  00000+0  67233-3 0  9999,2 41186  46.9967 138.4866 0001014 327.2739  32.8084 14.60681632449287,14.60681632,0.0001014,LEO
41187,ORBCOMM FM108,2015,98.86,172.0,+,47.0,Active,1,LEO,USA,ORBCOMM,Commercial,Communications,Falcon,1 41187U 15081J   24133.87835148  .00003787  00000+0  87816-3 0  9990,2 41187  47.0024 195.2066 0003652 270.9155  89.1311 14.56601737448407,14.56601737,0.0003652,LEO
41188,ORBCOMM FM117,2015,98.86,172.0,+,47.0,Active,1,LEO,USA,ORBCOMM,Commercial,Communications,Falcon,1 41188U 15081K   24134.18714602  .00003022  00000+0  70879-3 0  9990,2 41188  46.9987 192.6444 0004100 282.4102  77.6324 14.56577945448548,14.56577945,0.00041,LEO
41189,ORBCOMM FM116,2015,98.86,172.0,+,47.0,Active,1,LEO,USA,ORBCOMM,Commercial,Communications,Falcon,1 41189U 15081L   24134.10779829  .00003589  00000+0  83431-3 0  9991,2 41189  47.0008 282.8371 0001533 357.9552   2.1326 14.56604295447363,14.56604295,0.0001533,LEO
